1 00902U 64063E   25157.75580263  .00000055  00000-0  70157-4 0  9990
2 00902  90.2328  66.9974 0016779 234.0245 185.3136 13.52863729805509
1 00902U 64063E   25158.51905928  .00000054  00000-0  68918-4 0  9995
2 00902  90.2328  67.0154 0016823 231.6014 302.8160 13.52863799805609
1 00902U 64063E   25158.79262275  .00000055  00000-0  69219-4 0  9992
2 00902  90.2328  67.0219 0016843 230.7446 195.2171 13.52863847805646
1   902U 64063E   25159.18313168  .00000057  00000-0  72113-4 0  9993
2   902  90.2328  67.0310 0016870 229.5096 297.2173 13.52863884806158
1 00902U 64063E   25159.48165234  .00000054  00000-0  68866-4 0  9992
2 00902  90.2328  67.0381 0016888 228.5708 311.1772 13.52863894805739
1 00902U 64063E   25159.74637884  .00000052  00000-0  65889-4 0  9996
2 00902  90.2327  67.0443 0016907 227.7322 160.5469 13.52863923805778
1 00902U 64063E   25160.78982935  .00000048  00000-0  59597-4 0  9996
2 00902  90.2327  67.0689 0016975 224.4078 202.7680 13.52863981805911
1 00902U 64063E   25161.47766772  .00000049  00000-0  61065-4 0  9996
2 00902  90.2326  67.0851 0017025 222.2304 312.9339 13.52864016806002
1   902U 64063E   25161.47766772  .00000049  00000-0  61065-4 0  9996
2   902  90.2326  67.0851 0017025 222.2304 312.9339 13.52864016806462
1 00902U 64063E   25161.74971439  .00000049  00000-0  60306-4 0  9991
2 00902  90.2326  67.0915 0017047 221.3806 197.9453 13.52864055806049
1 00902U 64063E   25162.51289686  .00000051  00000-0  63623-4 0  9991
2 00902  90.2325  67.1094 0017104 218.9918 315.0532 13.52864120806142
1 00902U 64063E   25162.78707022  .00000053  00000-0  66176-4 0  9997
2 00902  90.2325  67.1159 0017127 218.1601 210.3981 13.52864170806184
1   902U 64063E   25163.74681163  .00000055  00000-0  69618-4 0  9997
2   902  90.2324  67.1384 0017203 215.1453 204.8646 13.52864270806761
1 00902U 64063E   25163.95986093  .00000055  00000-0  69102-4 0  9998
2 00902  90.2324  67.1434 0017220 214.4799 162.5276 13.52864282806347
1 00902U 64063E   25164.50982807  .00000064  00000-0  83810-4 0  9991
2 00902  90.2323  67.1563 0017262 212.7619 321.1599 13.52864410806419
1 00902U 64063E   25164.78434219  .00000060  00000-0  77425-4 0  9991
2 00902  90.2323  67.1627 0017285 211.8776 218.2161 13.52864419806453
1 00902U 64063E   25165.47139635  .00000057  00000-0  72892-4 0  9991
2 00902  90.2322  67.1789 0017343 209.7427 324.5235 13.52864457806540
1 00902U 64063E   25165.74382775  .00000051  00000-0  64056-4 0  9993
2 00902  90.2322  67.1853 0017367 208.8859 211.4150 13.52864469806584
1 00902U 64063E   25166.21021897  .00000049  00000-0  60204-4 0  9999
2 00902  90.2322  67.1963 0017409 207.4530 322.9640 13.52864508806647
1   902U 64063E   25166.21021897  .00000049  00000-0  60204-4 0  9999
2   902  90.2322  67.1963 0017409 207.4530 322.9640 13.52864508807109
1 00902U 64063E   25166.78115846  .00000046  00000-0  56308-4 0  9996
2 00902  90.2322  67.2097 0017461 205.6913 223.7213 13.52864571806722
1 00902U 64063E   25167.46945579  .00000039  00000-0  44973-4 0  9993
2 00902  90.2321  67.2258 0017523 203.6009 336.0355 13.52864571806818
1 00902U 64063E   25167.95283300  .00000033  00000-0  36645-4 0  9995
2 00902  90.2322  67.2372 0017572 202.1196 170.3111 13.52864601806881
1   902U 64063E   25168.50481713  .00000029  00000-0  31156-4 0  9992
2   902  90.2321  67.2502 0017622 200.4434 338.7195 13.52864638807419
1 00902U 64063E   25168.77863777  .00000025  00000-0  24996-4 0  9995
2 00902  90.2321  67.2566 0017649 199.6258 232.3340 13.52864656806994
1 00902U 64063E   25169.23374109  .00000027  00000-0  27730-4 0  9994
2 00902  90.2321  67.2672 0017695 198.2548 288.8789 13.52864704807055
1 00902U 64063E   25169.94965169  .00000021  00000-0  18196-4 0  9994
2 00902  90.2321  67.2841 0017767 196.0638 175.6994 13.52864720807159
1 00902U 64063E   25170.50080153  .00000020  00000-0  16743-4 0  9994
2 00902  90.2320  67.2970 0017818 194.4305 340.0041 13.52864746807228
1 00902U 64063E   25170.77501155  .00000015  00000-0  92792-5 0  9996
2 00902  90.2320  67.3034 0017848 193.5923 235.5343 13.52864735807264
1   902U 64063E   25170.77501155  .00000015  00000-0  92792-5 0  9996
2   902  90.2320  67.3034 0017848 193.5923 235.5343 13.52864735807714
1 00902U 64063E   25171.46413486  .00000012  00000-0  47589-5 0  9993
2 00902  90.2318  67.3195 0017914 191.5513 351.8197 13.52864707807354
1 00902U 64063E   25171.94674957  .00000010  00000-0  23438-5 0  9993
2 00902  90.2318  67.3308 0017965 190.1130 182.3410 13.52864714807427
1 00902U 64063E   25172.62439662  .00000013  00000-0  66647-5 0  9993
2 00902  90.2318  67.3467 0018034 188.0947 242.7440 13.52864738807513
1 00902U 64063E   25172.77267760  .00000013  00000-0  58736-5 0  9997
2 00902  90.2318  67.3502 0018048 187.6542 244.9286 13.52864742807533
1 00902U 64063E   25173.16267844  .00000017  00000-0  12794-4 0  9991
2 00902  90.2317  67.3593 0018094 186.5092 344.3669 13.52864754807589
1   902U 64063E   25173.16267844  .00000017  00000-0  12794-4 0  9991
2   902  90.2317  67.3593 0018094 186.5092 344.3669 13.52864754808041
1 00902U 64063E   25173.73193456  .00000018  00000-0  13634-4 0  9996
2 00902  90.2316  67.3725 0018156 184.8313 236.8468 13.52864754807662
1 00902U 64063E   25174.49463581  .00000027  00000-0  27649-4 0  9990
2 00902  90.2315  67.3903 0018235 182.5782 351.4784 13.52864795807763
1 00902U 64063E   25174.69279566  .00000030  00000-0  31707-4 0  9994
2 00902  90.2315  67.3950 0018256 182.0014 236.5801 13.52864824807790
1   902U 64063E   25175.22328977  .00000034  00000-0  37702-4 0  9990
2   902  90.2314  67.4073 0018310 180.4696 300.2433 13.52864832808324
1 00902U 64063E   25175.72894128  .00000042  00000-0  50240-4 0  9992
2 00902  90.2313  67.4192 0018357 179.0062 242.9193 13.52864886807937
1 00902U 64063E   25176.49171032  .00000048  00000-0  58752-4 0  9991
2 00902  90.2313  67.4370 0018434 176.7889 357.8454 13.52864926808035
1 00902U 64063E   25176.68983324  .00000050  00000-0  61735-4 0  9995
2 00902  90.2312  67.4417 0018455 176.2156 242.7639 13.52864956808064
1   902U 64063E   25177.45483722  .00000055  00000-0  70057-4 0  9990
2   902  90.2311  67.4595 0018531 174.0111   8.5557 13.52864999808628
1 00902U 64063E   25177.64571797  .00000056  00000-0  70504-4 0  9999
2 00902  90.2311  67.4640 0018555 173.4449 218.2165 13.52865014808198
1 00902U 64063E   25177.72607706  .00000052  00000-0  64629-4 0  9995
2 00902  90.2311  67.4659 0018566 173.1926 249.6093 13.52864996808205
